[{"OBJECT_NAME":"STARLINK-6250","OBJECT_ID":"2023-094N","EPOCH":"2026-03-09T22:00:01.999584","MEAN_MOTION":15.13757953,"ECCENTRICITY":7.742e-5,"INCLINATION":43.0004,"RA_OF_ASC_NODE":28.5902,"ARG_OF_PERICENTER":238.6118,"MEAN_ANOMALY":352.2453,"EPHEMERIS_TYPE":0,"CLASSIFICATION_TYPE":"U","NORAD_CAT_ID":57230,"ELEMENT_SET_NO":999,"REV_AT_EPOCH":558,"BSTAR":0.0042340714,"MEAN_MOTION_DOT":0.00078344,"MEAN_MOTION_DDOT":0},{"OBJECT_NAME":"COSMOS 2251 DEB","OBJECT_ID":"1993-036AKM","EPOCH":"2026-03-09T06:40:10.063200","MEAN_MOTION":15.08111536,"ECCENTRICITY":0.00695902,"INCLINATION":73.9816,"RA_OF_ASC_NODE":154.5784,"ARG_OF_PERICENTER":280.7947,"MEAN_ANOMALY":78.5416,"EPHEMERIS_TYPE":0,"CLASSIFICATION_TYPE":"U","NORAD_CAT_ID":35443,"ELEMENT_SET_NO":999,"REV_AT_EPOCH":88177,"BSTAR":0.0043181541,"MEAN_MOTION_DOT":0.00071124,"MEAN_MOTION_DDOT":0}]
